NORAD_CAT_ID,OBJECT_NAME,OBJECT_TYPE,EPOCH,MEAN_MOTION,ECCENTRICITY,INCLINATION,RA_OF_ASC_NODE,ARG_OF_PERICENTER,MEAN_ANOMALY,BSTAR,MEAN_MOTION_DOT,MEAN_MOTION_DDOT,TLE_LINE0,TLE_LINE1,TLE_LINE2,SEMIMAJOR_AXIS,PERIOD,APOGEE,PERIGEE,DECAYED
55403.0,STARLINK-5597,PAYLOAD,2024-02-17 00:36:26,14.983735,0.0002981,70.0015,159.6608,265.355,94.7269,-0.00060978,-7.369e-05,0.0,0 STARLINK-5597,1 55403U 23014N   24048.02530659 -.00007369  00000-0 -60978-3 0  9995,2 55403  70.0015 159.6608 0002981 265.3550  94.7269 14.98373500 58520,6950.058,96.104,573.995,569.852,0.0
55403.0,STARLINK-5597,PAYLOAD,2024-02-17 11:49:23,14.9833138,0.0002886,70.0011,158.4821,267.6123,92.4706,0.00013878,1.563e-05,0.0,0 STARLINK-5597,1 55403U 23014N   24048.49263427  .00001563  00000-0  13878-3 0  9997,2 55403  70.0011 158.4821 0002886 267.6123  92.4706 14.98331380 58593,6950.189,96.107,574.059,570.048,0.0
55403.0,STARLINK-5597,PAYLOAD,2024-02-17 13:25:31,14.98339516,0.0002963,70.0011,158.3138,258.3367,101.7459,0.00015974,1.814e-05,0.0,0 STARLINK-5597,1 55403U 23014N   24048.55938770  .00001814  00000-0  15974-3 0  9992,2 55403  70.0011 158.3138 0002963 258.3367 101.7459 14.98339516 59540,6950.163,96.106,574.088,569.969,0.0
55403.0,STARLINK-5597,PAYLOAD,2024-02-17 16:37:46,14.98346094,0.0003198,70.0004,157.9769,263.811,96.2685,0.00020622,2.369e-05,0.0,0 STARLINK-5597,1 55403U 23014N   24048.69290087  .00002369  00000-0  20622-3 0  9991,2 55403  70.0004 157.9769 0003198 263.8110  96.2685 14.98346094 58621,6950.143,96.106,574.231,569.785,0.0
55403.0,STARLINK-5597,PAYLOAD,2024-02-18 11:51:25,14.98321427,0.0003003,70.0009,155.9578,268.5617,91.5198,-0.00016886,-2.107e-05,0.0,0 STARLINK-5597,1 55403U 23014N   24049.49404711 -.00002107  00000-0 -16886-3 0  9990,2 55403  70.0009 155.9578 0003003 268.5617  91.5198 14.98321427 58744,6950.219,96.108,574.172,569.997,0.0
55403.0,STARLINK-5597,PAYLOAD,2024-02-18 15:03:41,14.98323516,0.0003073,70.0008,155.6203,270.5692,89.5115,-0.00018024,-2.243e-05,0.0,0 STARLINK-5597,1 55403U 23014N   24049.62756670 -.00002243  00000-0 -18024-3 0  9996,2 55403  70.0008 155.6203 0003073 270.5692  89.5115 14.98323516 59702,6950.213,96.107,574.214,569.942,0.0
55403.0,STARLINK-5597,PAYLOAD,2024-02-18 16:39:49,14.98324288,0.0003059,70.0009,155.4522,270.2169,89.864,-0.00017104,-2.133e-05,0.0,0 STARLINK-5597,1 55403U 23014N   24049.69432605 -.00002133  00000-0 -17104-3 0  9998,2 55403  70.0009 155.4522 0003059 270.2169  89.8640 14.98324288 59719,6950.211,96.107,574.202,569.949,0.0
55403.0,STARLINK-5597,PAYLOAD,2024-02-19 10:17:18,14.98327342,0.0003103,70.001,153.6012,270.2001,89.8802,-6.5312e-05,-8.72e-06,0.0,0 STARLINK-5597,1 55403U 23014N   24050.42868310 -.00000872  00000-0 -65312-4 0  9990,2 55403  70.0010 153.6012 0003103 270.2001  89.8802 14.98327342 58881,6950.201,96.107,574.223,569.909,0.0
55403.0,STARLINK-5597,PAYLOAD,2024-02-19 13:29:34,14.98332085,0.0003159,70.0007,153.2647,269.8992,90.1805,-5.8655e-05,-7.93e-06,0.0,0 STARLINK-5597,1 55403U 23014N   24050.56220022 -.00000793  00000-0 -58655-4 0  9991,2 55403  70.0007 153.2647 0003159 269.8992  90.1805 14.98332085 59846,6950.186,96.107,574.247,569.856,0.0
55403.0,STARLINK-5597,PAYLOAD,2024-02-19 16:41:49,14.98337411,0.0003139,70.0008,152.9281,268.4295,91.6504,-7.2019e-05,-9.52e-06,0.0,0 STARLINK-5597,1 55403U 23014N   24050.69571677 -.00000952  00000-0 -72019-4 0  9997,2 55403  70.0008 152.9281 0003139 268.4295  91.6504 14.98337411 58924,6950.17,96.107,574.217,569.853,0.0
55403.0,STARLINK-5597,PAYLOAD,2024-02-20 11:55:27,14.98321948,0.0002901,70.0012,150.9089,269.4249,90.6578,0.00017612,2.009e-05,0.0,0 STARLINK-5597,1 55403U 23014N   24051.49684131  .00002009  00000-0  17612-3 0  9996,2 55403  70.0012 150.9089 0002901 269.4249  90.6578 14.98321948 59041,6950.218,96.108,574.099,570.067,0.0
55403.0,STARLINK-5597,PAYLOAD,2024-02-20 13:31:35,14.98324335,0.0002861,70.0012,150.7404,269.1374,90.9458,0.0001817,2.075e-05,0.0,0 STARLINK-5597,1 55403U 23014N   24051.56359990  .00002075  00000-0  18170-3 0  9999,2 55403  70.0012 150.7404 0002861 269.1374  90.9458 14.98324335 59998,6950.21,96.107,574.064,570.087,0.0
55403.0,STARLINK-5597,PAYLOAD,2024-02-20 16:43:50,14.98329109,0.000284,70.0012,150.4037,268.3496,91.7338,0.00016857,1.919e-05,0.0,0 STARLINK-5597,1 55403U 23014N   24051.69711746  .00001919  00000-0  16857-3 0  9990,2 55403  70.0012 150.4037 0002840 268.3496  91.7338 14.98329109 60015,6950.196,96.107,574.035,570.087,0.0
55403.0,STARLINK-5597,PAYLOAD,2024-02-21 13:33:36,14.98330814,0.0002822,70.0013,148.2159,271.1451,88.9385,4.3892e-05,4.31e-06,0.0,0 STARLINK-5597,1 55403U 23014N   24052.56500041  .00000431  00000-0  43892-4 0  9999,2 55403  70.0013 148.2159 0002822 271.1451  88.9385 14.98330814 60148,6950.19,96.107,574.017,570.094,0.0
55403.0,STARLINK-5597,PAYLOAD,2024-02-21 16:45:51,14.98352926,0.0002728,70.0013,147.8794,268.0162,92.0685,-0.00028934,-3.546e-05,0.0,0 STARLINK-5597,1 55403U 23014N   24052.69851359 -.00003546  00000-0 -28934-3 0  9995,2 55403  70.0013 147.8794 0002728 268.0162  92.0685 14.98352926 59221,6950.122,96.106,573.883,570.091,0.0
55403.0,STARLINK-5597,PAYLOAD,2024-02-22 11:59:29,14.98329987,0.0002636,70.0016,145.8601,266.7443,93.3415,-6.1946e-05,-8.32e-06,0.0,0 STARLINK-5597,1 55403U 23014N   24053.49964298 -.00000832  00000-0 -61946-4 0  9997,2 55403  70.0016 145.8601 0002636 266.7443  93.3415 14.98329987 59343,6950.193,96.107,573.89,570.226,0.0
55403.0,STARLINK-5597,PAYLOAD,2024-02-22 13:35:37,14.98328507,0.0002582,70.0017,145.6909,264.7317,95.3548,-3.8999e-05,-5.58e-06,0.0,0 STARLINK-5597,1 55403U 23014N   24053.56640314 -.00000558  00000-0 -38999-4 0  9992,2 55403  70.0017 145.6909 0002582 264.7317  95.3548 14.98328507 60293,6950.198,96.107,573.857,570.268,0.0
55403.0,STARLINK-5597,PAYLOAD,2024-02-22 15:11:45,14.98328869,0.0002607,70.0017,145.523,266.1308,93.9553,-3.9357e-05,-5.62e-06,0.0,0 STARLINK-5597,1 55403U 23014N   24053.63316292 -.00000562  00000-0 -39357-4 0  9999,2 55403  70.0017 145.5230 0002607 266.1308  93.9553 14.98328869 60306,6950.196,96.107,573.873,570.249,0.0
55403.0,STARLINK-5597,PAYLOAD,2024-02-23 12:01:29,14.98334936,0.0002771,70.0009,143.3343,263.7755,96.3089,3.6344e-05,3.41e-06,0.0,0 STARLINK-5597,1 55403U 23014N   24054.50103495  .00000341  00000-0  36344-4 0  9991,2 55403  70.0009 143.3343 0002771 263.7755  96.3089 14.98334936 59490,6950.178,96.107,573.969,570.117,0.0
55403.0,STARLINK-5597,PAYLOAD,2024-02-23 13:37:37,14.98334823,0.0002805,70.0008,143.1659,265.2289,94.855,3.3066e-05,3.02e-06,0.0,0 STARLINK-5597,1 55403U 23014N   24054.56779503  .00000302  00000-0  33066-4 0  9991,2 55403  70.0008 143.1659 0002805 265.2289  94.8550 14.98334823 60442,6950.178,96.107,573.993,570.093,0.0
55403.0,STARLINK-5597,PAYLOAD,2024-02-23 15:13:45,14.98335503,0.0002848,70.0006,142.9975,266.5569,93.5264,3.039e-05,2.7e-06,0.0,0 STARLINK-5597,1 55403U 23014N   24054.63455445  .00000270  00000-0  30390-4 0  9996,2 55403  70.0006 142.9975 0002848 266.5569  93.5264 14.98335503 60455,6950.176,96.107,574.02,570.061,0.0
55403.0,STARLINK-5597,PAYLOAD,2024-02-24 12:03:31,14.98324778,0.0002797,70.0006,140.8088,271.3604,88.7235,-3.0877e-05,-4.61e-06,0.0,0 STARLINK-5597,1 55403U 23014N   24055.50244341 -.00000461  00000-0 -30877-4 0  9998,2 55403  70.0006 140.8088 0002797 271.3604  88.7235 14.98324778 59649,6950.209,96.107,574.018,570.13,0.0
55403.0,STARLINK-5597,PAYLOAD,2024-02-24 13:39:39,14.98325109,0.0002796,70.0005,140.6405,271.5156,88.5683,-2.7854e-05,-4.25e-06,0.0,0 STARLINK-5597,1 55403U 23014N   24055.56920327 -.00000425  00000-0 -27854-4 0  9990,2 55403  70.0005 140.6405 0002796 271.5156  88.5683 14.98325109 60592,6950.208,96.107,574.016,570.13,0.0
55403.0,STARLINK-5597,PAYLOAD,2024-02-25 12:05:31,14.98334897,0.0002666,70.0004,138.2836,265.8014,94.284,6.0127e-05,6.25e-06,0.0,0 STARLINK-5597,1 55403U 23014N   24056.50383410  .00000625  00000-0  60127-4 0  9991,2 55403  70.0004 138.2836 0002666 265.8014  94.2840 14.98334897 59790,6950.178,96.107,573.896,570.19,0.0
55403.0,STARLINK-5597,PAYLOAD,2024-02-25 13:41:39,14.98334394,0.000268,70.0004,138.1154,266.1999,93.8854,5.4776e-05,5.61e-06,0.0,0 STARLINK-5597,1 55403U 23014N   24056.57059442  .00000561  00000-0  54776-4 0  9995,2 55403  70.0004 138.1154 0002680 266.1999  93.8854 14.98334394 60743,6950.179,96.107,573.907,570.182,0.0
55403.0,STARLINK-5597,PAYLOAD,2024-02-25 15:17:47,14.98335427,0.0002686,70.0004,137.947,266.6771,93.4081,6.1726e-05,6.44e-06,0.0,0 STARLINK-5597,1 55403U 23014N   24056.63735342  .00000644  00000-0  61726-4 0  9997,2 55403  70.0004 137.9470 0002686 266.6771  93.4081 14.98335427 60757,6950.176,96.107,573.908,570.174,0.0
55403.0,STARLINK-5597,PAYLOAD,2024-02-26 04:06:54,14.9820346,0.0002909,70.0007,136.6023,259.4443,100.6388,0.0020319,0.00024156,0.0,0 STARLINK-5597,1 55403U 23014N   24057.17145834  .00024156  00000-0  20319-2 0  9993,2 55403  70.0007 136.6023 0002909 259.4443 100.6388 14.98203460 59899,6950.584,96.115,574.471,570.427,0.0
55403.0,STARLINK-5597,PAYLOAD,2024-02-26 12:07:32,14.98323558,0.0002524,70.0012,135.7612,265.1682,94.9189,1.2374e-05,5.5e-07,0.0,0 STARLINK-5597,1 55403U 23014N   24057.50524282  .00000055  00000-0  12374-4 0  9994,2 55403  70.0012 135.7612 0002524 265.1682  94.9189 14.98323558 59942,6950.213,96.107,573.832,570.324,0.0
55403.0,STARLINK-5597,PAYLOAD,2024-02-26 13:43:40,14.98325934,0.000265,70.0012,135.5933,260.0048,100.0811,4.134e-05,4e-06,0.0,0 STARLINK-5597,1 55403U 23014N   24057.57200011  .00000400  00000-0  41340-4 0  9991,2 55403  70.0012 135.5933 0002650 260.0048 100.0811 14.98325934 60893,6950.205,96.107,573.912,570.229,0.0
55403.0,STARLINK-5597,PAYLOAD,2024-02-26 15:19:48,14.98325526,0.0002701,70.0009,135.4246,262.8797,97.2055,3.0954e-05,2.76e-06,0.0,0 STARLINK-5597,1 55403U 23014N   24057.63876031  .00000276  00000-0  30954-4 0  9999,2 55403  70.0009 135.4246 0002701 262.8797  97.2055 14.98325526 60909,6950.207,96.107,573.949,570.194,0.0
